#dV2023  1 16 22  0  0.00000000    1682       CTS   FIT  GFZ
## 2245 165600.00000000    30.00000000 59960 0.9166666666667
+    1   L64  0  0  0  0  0  0  0  0  0  0  0  0  0  0  0  0
+          0  0  0  0  0  0  0  0  0  0  0  0  0  0  0  0  0
+          0  0  0  0  0  0  0  0  0  0  0  0  0  0  0  0  0
+          0  0  0  0  0  0  0  0  0  0  0  0  0  0  0  0  0
+          0  0  0  0  0  0  0  0  0  0  0  0  0  0  0  0  0
++         0  0  0  0  0  0  0  0  0  0  0  0  0  0  0  0  0
++         0  0  0  0  0  0  0  0  0  0  0  0  0  0  0  0  0
++         0  0  0  0  0  0  0  0  0  0  0  0  0  0  0  0  0
++         0  0  0  0  0  0  0  0  0  0  0  0  0  0  0  0  0
++         0  0  0  0  0  0  0  0  0  0  0  0  0  0  0  0  0
%c L  cc GPS ccc cccc cccc cccc cccc ccccc ccccc ccccc ccccc
%c cc cc ccc ccc cccc cccc cccc cccc ccccc ccccc ccccc ccccc
%f  0.0000000  0.000000000  0.00000000000  0.000000000000000
%f  0.0000000  0.000000000  0.00000000000  0.000000000000000
%i    0    0    0    0      0      0      0      0         0
%i    0    0    0    0      0      0      0      0         0
/* CCCCCCCCCCCCCCCCCCCCCCCCCCCCCCCCCCCCCCCCCCCCCCCCCCCCCCCCCCCCCCCCCCCCCCCCCCCCC
/* C                             GFZ RSO-ORBIT                                 C
/* C DOI: https://doi.org/10.5880/GFZ_ORBIT/RSO/L64_G_v02                      C
/* C                                                                           C
/* C DORIS        RMS: not applicable                                          C
/* C GNSS-E Code  RMS: not applicable                                          C
/* C GNSS-E Phase RMS: not applicable                                          C
/* C GNSS-G Code  RMS:  48.601 [cm]   Obs.acc.:     13934 Obs.eli.:      1265  C
/* C GNSS-G Phase RMS:   4.073 [mm]   Obs.acc.:     13934 Obs.eli.:      1265  C
/* C SLR          RMS:   8.781 [cm]   Obs.acc.:        44 Obs.eli.:         0  C
/* C                                                                           C
/* CCCCCCCCCCCCCCCCCCCCCCCCCCCCCCCCCCCCCCCCCCCCCCCCCCCCCCCCCCCCCCCCCCCCCCCCCCCCC
*  2023  1 17  3  6  0.00000000
PL64   3597.408382   1931.989080  -5523.769558   7255.888605
VL64 -53584.796870 -29595.558010 -45231.853833 999999.999999
*  2023  1 17  3  6 30.00000000
PL64   3434.512536   1842.512429  -5656.384739   7256.348499
VL64 -55002.779154 -30049.024185 -43170.185314 999999.999999
*  2023  1 17  3  7  0.00000000
PL64   3267.450474   1751.734151  -5782.743338   7256.808581
VL64 -56361.996557 -30463.275579 -41061.186133 999999.999999
*  2023  1 17  3  7 30.00000000
PL64   3096.400957   1659.772169  -5902.706866   7257.268495
VL64 -57660.815422 -30838.135202 -38907.198898 999999.999999
*  2023  1 17  3  8  0.00000000
PL64   2921.547550   1566.744860  -6016.143930   7257.728229
VL64 -58897.667946 -31173.476206 -36710.611664 999999.999999
*  2023  1 17  3  8 30.00000000
PL64   2743.078418   1472.770909  -6122.930366   7258.187857
VL64 -60071.054488 -31469.221442 -34473.856319 999999.999999
*  2023  1 17  3  9  0.00000000
PL64   2561.186120   1377.969156  -6222.949371   7258.647435
VL64 -61179.546046 -31725.343692 -32199.405392 999999.999999
*  2023  1 17  3  9 30.00000000
PL64   2376.067396   1282.458449  -6316.091611   7259.106921
VL64 -62221.785479 -31941.865466 -29889.768062 999999.999999
*  2023  1 17  3 10  0.00000000
PL64   2187.922947   1186.357494  -6402.255334   7259.566403
VL64 -63196.487220 -32118.858197 -27547.486891 999999.999999
*  2023  1 17  3 10 30.00000000
PL64   1996.957227   1089.784711  -6481.346463   7260.025762
VL64 -64102.437345 -32256.441100 -25175.136691 999999.999999
*  2023  1 17  3 11  0.00000000
PL64   1803.378218    992.858093  -6553.278690   7260.485190
VL64 -64938.495281 -32354.780213 -22775.323177 999999.999999
*  2023  1 17  3 11 30.00000000
PL64   1607.397215    895.695064  -6617.973573   7260.944605
VL64 -65703.595649 -32414.087491 -20350.681990 999999.999999
*  2023  1 17  3 12  0.00000000
PL64   1409.228590    798.412343  -6675.360618   7261.404037
VL64 -66396.752533 -32434.621588 -17903.877075 999999.999999
*  2023  1 17  3 12 30.00000000
PL64   1209.089550    701.125802  -6725.377357   7261.863500
VL64 -67017.062287 -32416.688863 -15437.593750 999999.999999
*  2023  1 17  3 13  0.00000000
PL64   1007.199890    603.950326  -6767.969402   7262.323063
VL64 -67563.701051 -32360.641379 -12954.533019 999999.999999
*  2023  1 17  3 13 30.00000000
PL64    803.781763    506.999675  -6803.090493   7262.782581
VL64 -68035.923448 -32266.874697 -10457.411513 999999.999999
*  2023  1 17  3 14  0.00000000
PL64    599.059433    410.386359  -6830.702541   7263.242156
VL64 -68433.064895 -32135.828114  -7948.960545 999999.999999
*  2023  1 17  3 14 30.00000000
PL64    393.259039    314.221505  -6850.775669   7263.701800
VL64 -68754.543099 -31967.984384  -5431.921976 999999.999999
*  2023  1 17  3 15  0.00000000
PL64    186.608340    218.614727  -6863.288235   7264.161451
VL64 -68999.858830 -31763.868028  -2909.045533 999999.999999
*  2023  1 17  3 15 30.00000000
PL64    -20.663534    123.674005  -6868.226858   7264.621025
VL64 -69168.597712 -31524.044380   -383.085067 999999.999999
*  2023  1 17  3 16  0.00000000
PL64   -228.326335     29.505566  -6865.586415   7265.080581
VL64 -69260.428405 -31249.116790   2143.206046 999999.999999
*  2023  1 17  3 16 30.00000000
PL64   -436.148943    -63.786229  -6855.370046   7265.540130
VL64 -69275.100799 -30939.723903   4667.073256 999999.999999
*  2023  1 17  3 17  0.00000000
PL64   -643.899614   -156.098987  -6837.589156   7265.999700
VL64 -69212.450344 -30596.541661   7185.760310 999999.999999
*  2023  1 17  3 17 30.00000000
PL64   -851.346244   -247.332403  -6812.263414   7266.459315
VL64 -69072.400682 -30220.284676   9696.517114 999999.999999
*  2023  1 17  3 18  0.00000000
PL64  -1058.256625   -337.388370  -6779.420722   7266.919005
VL64 -68854.960168 -29811.703154  12196.605444 999999.999999
*  2023  1 17  3 18 30.00000000
PL64  -1264.398702   -426.171080  -6739.097178   7267.378791
VL64 -68560.220255 -29371.580325  14683.298318 999999.999999
*  2023  1 17  3 19  0.00000000
PL64  -1469.540821   -513.587125  -6691.337043   7267.838573
VL64 -68188.357816 -28900.731935  17153.880705 999999.999999
*  2023  1 17  3 19 30.00000000
PL64  -1673.451988   -599.545593  -6636.192703   7268.298276
VL64 -67739.636989 -28400.005877  19605.653670 999999.999999
*  2023  1 17  3 20  0.00000000
PL64  -1875.902132   -683.958161  -6573.724609   7268.757895
VL64 -67214.408250 -27870.281045  22035.939481 999999.999999
*  2023  1 17  3 20 30.00000000
PL64  -2076.662361   -766.739187  -6504.001209   7269.217291
VL64 -66613.105688 -27312.465073  24442.084073 999999.999999
*  2023  1 17  3 21  0.00000000
PL64  -2275.505207   -847.805794  -6427.098877   7269.676790
VL64 -65936.246260 -26727.492597  26821.457029 999999.999999
*  2023  1 17  3 21 30.00000000
PL64  -2472.204880   -927.077946  -6343.101844   7270.136329
VL64 -65184.431010 -26116.324508  29171.452926 999999.999999
*  2023  1 17  3 22  0.00000000
PL64  -2666.537520  -1004.478531  -6252.102115   7270.595908
VL64 -64358.345795 -25479.947213  31489.494268 999999.999999
*  2023  1 17  3 22 30.00000000
PL64  -2858.281453  -1079.933430  -6154.199381   7271.055431
VL64 -63458.761427 -24819.371535  33773.034556 999999.999999
*  2023  1 17  3 23  0.00000000
PL64  -3047.217442  -1153.371595  -6049.500923   7271.514926
VL64 -62486.533753 -24135.631326  36019.561271 999999.999999
*  2023  1 17  3 23 30.00000000
PL64  -3233.128950  -1224.725108  -5938.121503   7271.974473
VL64 -61442.603626 -23429.781914  38226.599340 999999.999999
*  2023  1 17  3 24  0.00000000
PL64  -3415.802384  -1293.929251  -5820.183251   7272.434191
VL64 -60327.995726 -22702.898306  40391.714794 999999.999999
*  2023  1 17  3 24 30.00000000
PL64  -3595.027350  -1360.922556  -5695.815529   7272.893680
VL64 -59143.816877 -21956.073670  42512.517205 999999.999999
*  2023  1 17  3 25  0.00000000
PL64  -3770.596899  -1425.646862  -5565.154807   7273.353463
VL64 -57891.255159 -21190.418268  44586.661838 999999.999999
*  2023  1 17  3 25 30.00000000
PL64  -3942.307764  -1488.047361  -5428.344514   7273.813359
VL64 -56571.579082 -20407.058279  46611.852370 999999.999999
*  2023  1 17  3 26  0.00000000
PL64  -4109.960605  -1548.072647  -5285.534894   7274.272992
VL64 -55186.136361 -19607.134409  48585.843645 999999.999999
*  2023  1 17  3 26 30.00000000
PL64  -4273.360239  -1605.674757  -5136.882845   7274.732490
VL64 -53736.352521 -18791.800238  50506.444163 999999.999999
*  2023  1 17  3 27  0.00000000
PL64  -4432.315878  -1660.809203  -4982.551757   7275.192066
VL64 -52223.729753 -17962.220395  52371.518228 999999.999999
*  2023  1 17  3 27 30.00000000
PL64  -4586.641354  -1713.435007  -4822.711341   7275.651548
VL64 -50649.846024 -17119.568924  54178.988178 999999.999999
*  2023  1 17  3 28  0.00000000
PL64  -4736.155344  -1763.514727  -4657.537451   7276.111005
VL64 -49016.353854 -16265.028008  55926.836937 999999.999999
*  2023  1 17  3 28 30.00000000
PL64  -4880.681592  -1811.014475  -4487.211897   7276.570496
VL64 -47324.978627 -15399.786757  57613.110588 999999.999999
*  2023  1 17  3 29  0.00000000
PL64  -5020.049127  -1855.903941  -4311.922254   7277.029990
VL64 -45577.517118 -14525.039598  59235.920692 999999.999999
*  2023  1 17  3 29 30.00000000
PL64  -5154.092473  -1898.156405  -4131.861659   7277.489519
VL64 -43775.836301 -13641.984754  60793.446941 999999.999999
*  2023  1 17  3 30  0.00000000
PL64  -5282.651858  -1937.748742  -3947.228607   7277.949097
VL64 -41921.871189 -12751.822719  62283.940372 999999.999999
*  2023  1 17  3 30 30.00000000
PL64  -5405.573414  -1974.661435  -3758.226728   7278.408678
VL64 -40017.621866 -11855.754248  63705.725581 999999.999999
*  2023  1 17  3 31  0.00000000
PL64  -5522.709366  -2008.878561  -3565.064565   7278.868142
VL64 -38065.151433 -10954.978582  65057.202120 999999.999999
EOF
